start=new Date('2022-04-06T00:00:00.000Z').valueOf();
sats=[{"BSTAR":"0.00073495000000","CENTER_NAME":"EARTH","ELEMENT_SET_NO":"999","MEAN_MOTION_DOT":"0.00010688","RCS_SIZE":"LARGE","TIME_SYSTEM":"UTC","CLASSIFICATION_TYPE":"U","REV_AT_EPOCH":"6721","EPHEMERIS_TYPE":"0","ECCENTRICITY":"0.00017740","OBJECT_ID":"2021-005BC","SITE":"AFETR","SEMIMAJOR_AXIS":"6925.291","OBJECT_NAME":"STARLINK-2121","DECAY_DATE":null,"MEAN_MOTION":"15.06418847","GP_ID":"200542965","REF_FRAME":"TEME","ARG_OF_PERICENTER":"71.5818","PERIOD":"95.591","MEAN_ANOMALY":"288.5363","FILE":"3389912","MEAN_ELEMENT_THEORY":"SGP4","COUNTRY_CODE":"US","APOAPSIS":"548.384","PERIAPSIS":"545.927","LAUNCH_DATE":"2021-01-20","NORAD_CAT_ID":"47399","OBJECT_TYPE":"PAYLOAD","RA_OF_ASC_NODE":"358.1292","EPOCH":"2022-04-05T21:46:27.302016","MEAN_MOTION_DDOT":"0.0000000000000","TLE_LINE2":"2 47399  53.0547 358.1292 0001774  71.5818 288.5363 15.06418847 67212","TLE_LINE1":"1 47399U 21005BC  22095.90726044  .00010688  00000-0  73495-3 0  9994","INCLINATION":"53.0547"},{"GP_ID":"200544216","MEAN_MOTION":"15.06402724","ARG_OF_PERICENTER":"50.0787","PERIOD":"95.592","MEAN_ANOMALY":"310.0331","REF_FRAME":"TEME","OBJECT_ID":"2021-005BD","SITE":"AFETR","SEMIMAJOR_AXIS":"6925.340","ECCENTRICITY":"0.00014720","OBJECT_NAME":"STARLINK-2122","DECAY_DATE":null,"RCS_SIZE":"LARGE","TIME_SYSTEM":"UTC","MEAN_MOTION_DOT":"0.00003244","CLASSIFICATION_TYPE":"U","REV_AT_EPOCH":"6749","EPHEMERIS_TYPE":"0","CENTER_NAME":"EARTH","ELEMENT_SET_NO":"999","BSTAR":"0.00023658000000","INCLINATION":"53.0552","TLE_LINE1":"1 47400U 21005BD  22095.89066758  .00003244  00000-0  23658-3 0  9990","TLE_LINE2":"2 47400  53.0552 338.1810 0001472  50.0787 310.0331 15.06402724 67490","MEAN_MOTION_DDOT":"0.0000000000000","EPOCH":"2022-04-05T21:22:33.678912","RA_OF_ASC_NODE":"338.1810","LAUNCH_DATE":"2021-01-20","PERIAPSIS":"546.186","OBJECT_TYPE":"PAYLOAD","NORAD_CAT_ID":"47400","COUNTRY_CODE":"US","FILE":"3389912","MEAN_ELEMENT_THEORY":"SGP4","APOAPSIS":"548.225"},{"BSTAR":"0.00018748000000","ELEMENT_SET_NO":"999","CENTER_NAME":"EARTH","MEAN_MOTION_DOT":"0.00002513","TIME_SYSTEM":"UTC","RCS_SIZE":"LARGE","REV_AT_EPOCH":"6736","EPHEMERIS_TYPE":"0","CLASSIFICATION_TYPE":"U","ECCENTRICITY":"0.00017440","SEMIMAJOR_AXIS":"6925.327","SITE":"AFETR","OBJECT_ID":"2021-005BE","DECAY_DATE":null,"OBJECT_NAME":"STARLINK-2123","MEAN_MOTION":"15.06406991","GP_ID":"200543967","REF_FRAME":"TEME","PERIOD":"95.592","MEAN_ANOMALY":"319.0864","ARG_OF_PERICENTER":"41.0256","MEAN_ELEMENT_THEORY":"SGP4","FILE":"3389912","COUNTRY_CODE":"US","APOAPSIS":"548.400","PERIAPSIS":"545.984","LAUNCH_DATE":"2021-01-20","NORAD_CAT_ID":"47401","OBJECT_TYPE":"PAYLOAD","RA_OF_ASC_NODE":"348.1241","EPOCH":"2022-04-05T21:49:07.674240","MEAN_MOTION_DDOT":"0.0000000000000","TLE_LINE2":"2 47401  53.0552 348.1241 0001744  41.0256 319.0864 15.06406991 67369","TLE_LINE1":"1 47401U 21005BE  22095.90911660  .00002513  00000-0  18748-3 0  9996","INCLINATION":"53.0552"},{"MEAN_MOTION":"15.06390774","GP_ID":"200517290","REF_FRAME":"TEME","PERIOD":"95.593","MEAN_ANOMALY":"295.8466","ARG_OF_PERICENTER":"64.2696","ECCENTRICITY":"0.00016770","SITE":"AFETR","SEMIMAJOR_AXIS":"6925.377","OBJECT_ID":"2021-005BF","DECAY_DATE":null,"OBJECT_NAME":"STARLINK-2124","MEAN_MOTION_DOT":"0.00002703","TIME_SYSTEM":"UTC","RCS_SIZE":"LARGE","REV_AT_EPOCH":"6796","EPHEMERIS_TYPE":"0","CLASSIFICATION_TYPE":"U","BSTAR":"0.00020035000000","ELEMENT_SET_NO":"999","CENTER_NAME":"EARTH","TLE_LINE2":"2 47402  53.0565 348.3233 0001677  64.2696 295.8466 15.06390774 67963","MEAN_MOTION_DDOT":"0.0000000000000","TLE_LINE1":"1 47402U 21005BF  22095.86120462  .00002703  00000-0  20035-3 0  9997","INCLINATION":"53.0565","RA_OF_ASC_NODE":"348.3233","EPOCH":"2022-04-05T20:40:08.079168","PERIAPSIS":"546.080","LAUNCH_DATE":"2021-01-20","NORAD_CAT_ID":"47402","OBJECT_TYPE":"PAYLOAD","MEAN_ELEMENT_THEORY":"SGP4","FILE":"3389697","COUNTRY_CODE":"US","APOAPSIS":"548.403"},{"COUNTRY_CODE":"US","MEAN_ELEMENT_THEORY":"SGP4","FILE":"3389912","APOAPSIS":"548.279","LAUNCH_DATE":"2021-01-20","PERIAPSIS":"546.168","OBJECT_TYPE":"PAYLOAD","NORAD_CAT_ID":"47403","EPOCH":"2022-04-05T20:50:44.555136","RA_OF_ASC_NODE":"348.2994","INCLINATION":"53.0548","TLE_LINE2":"2 47403  53.0548 348.2994 0001524  67.1833 292.9317 15.06396641 67359","MEAN_MOTION_DDOT":"0.0000000000000","TLE_LINE1":"1 47403U 21005BG  22095.86857124  .00000618  00000-0  60386-4 0  9997","CENTER_NAME":"EARTH","ELEMENT_SET_NO":"999","BSTAR":"0.00006038600000","RCS_SIZE":"LARGE","TIME_SYSTEM":"UTC","MEAN_MOTION_DOT":"0.00000618","CLASSIFICATION_TYPE":"U","EPHEMERIS_TYPE":"0","REV_AT_EPOCH":"6735","OBJECT_ID":"2021-005BG","SEMIMAJOR_AXIS":"6925.359","SITE":"AFETR","ECCENTRICITY":"0.00015240","OBJECT_NAME":"STARLINK-2127","DECAY_DATE":null,"GP_ID":"200543465","MEAN_MOTION":"15.06396641","MEAN_ANOMALY":"292.9317","PERIOD":"95.592","ARG_OF_PERICENTER":"67.1833","REF_FRAME":"TEME"},{"TLE_LINE2":"2 47404  53.0552 348.3147 0002020  57.1049 303.0134 15.06402505 67961","MEAN_MOTION_DDOT":"0.0000000000000","TLE_LINE1":"1 47404U 21005BH  22095.86489609  .00004045  00000-0  29026-3 0  9990","INCLINATION":"53.0552","RA_OF_ASC_NODE":"348.3147","EPOCH":"2022-04-05T20:45:27.022176","NORAD_CAT_ID":"47404","OBJECT_TYPE":"PAYLOAD","PERIAPSIS":"545.807","LAUNCH_DATE":"2021-01-20","APOAPSIS":"548.605","FILE":"3389697","MEAN_ELEMENT_THEORY":"SGP4","COUNTRY_CODE":"US","REF_FRAME":"TEME","PERIOD":"95.592","MEAN_ANOMALY":"303.0134","ARG_OF_PERICENTER":"57.1049","MEAN_MOTION":"15.06402505","GP_ID":"200517293","DECAY_DATE":null,"OBJECT_NAME":"STARLINK-2128","ECCENTRICITY":"0.00020200","SEMIMAJOR_AXIS":"6925.341","SITE":"AFETR","OBJECT_ID":"2021-005BH","EPHEMERIS_TYPE":"0","REV_AT_EPOCH":"6796","CLASSIFICATION_TYPE":"U","MEAN_MOTION_DOT":"0.00004045","TIME_SYSTEM":"UTC","RCS_SIZE":"LARGE","BSTAR":"0.00029026000000","ELEMENT_SET_NO":"999","CENTER_NAME":"EARTH"},{"REF_FRAME":"TEME","PERIOD":"95.592","MEAN_ANOMALY":"304.5943","ARG_OF_PERICENTER":"55.5181","MEAN_MOTION":"15.06408404","GP_ID":"200508625","DECAY_DATE":null,"OBJECT_NAME":"STARLINK-2130","ECCENTRICITY":"0.00014360","SITE":"AFETR","SEMIMAJOR_AXIS":"6925.323","OBJECT_ID":"2021-005BJ","EPHEMERIS_TYPE":"0","REV_AT_EPOCH":"6687","CLASSIFICATION_TYPE":"U","MEAN_MOTION_DOT":"0.00005007","TIME_SYSTEM":"UTC","RCS_SIZE":"LARGE","BSTAR":"0.00035468000000","ELEMENT_SET_NO":"999","CENTER_NAME":"EARTH","MEAN_MOTION_DDOT":"0.0000000000000","TLE_LINE2":"2 47405  53.0553  19.8708 0001436  55.5181 304.5943 15.06408404 66872","TLE_LINE1":"1 47405U 21005BJ  22095.51564096  .00005007  00000-0  35468-3 0  9993","INCLINATION":"53.0553","RA_OF_ASC_NODE":"19.8708","EPOCH":"2022-04-05T12:22:31.378944","NORAD_CAT_ID":"47405","OBJECT_TYPE":"PAYLOAD","LAUNCH_DATE":"2021-01-20","PERIAPSIS":"546.193","APOAPSIS":"548.182","FILE":"3389439","MEAN_ELEMENT_THEORY":"SGP4","COUNTRY_CODE":"US"},{"NORAD_CAT_ID":"47406","OBJECT_TYPE":"PAYLOAD","PERIAPSIS":"546.415","LAUNCH_DATE":"2021-01-20","APOAPSIS":"547.961","MEAN_ELEMENT_THEORY":"SGP4","FILE":"3389912","COUNTRY_CODE":"US","TLE_LINE2":"2 47406  53.0559 348.2630 0001116  67.9926 292.1181 15.06408354 67355","TLE_LINE1":"1 47406U 21005BK  22095.87594537  .00002413  00000-0  18077-3 0  9991","MEAN_MOTION_DDOT":"0.0000000000000","INCLINATION":"53.0559","RA_OF_ASC_NODE":"348.2630","EPOCH":"2022-04-05T21:01:21.679968","CLASSIFICATION_TYPE":"U","REV_AT_EPOCH":"6735","EPHEMERIS_TYPE":"0","MEAN_MOTION_DOT":"0.00002413","RCS_SIZE":"LARGE","TIME_SYSTEM":"UTC","BSTAR":"0.00018077000000","CENTER_NAME":"EARTH","ELEMENT_SET_NO":"999","REF_FRAME":"TEME","ARG_OF_PERICENTER":"67.9926","PERIOD":"95.592","MEAN_ANOMALY":"292.1181","MEAN_MOTION":"15.06408354","GP_ID":"200542716","OBJECT_NAME":"STARLINK-2133","DECAY_DATE":null,"ECCENTRICITY":"0.00011160","OBJECT_ID":"2021-005BK","SITE":"AFETR","SEMIMAJOR_AXIS":"6925.323"},{"CLASSIFICATION_TYPE":"U","REV_AT_EPOCH":"6735","EPHEMERIS_TYPE":"0","RCS_SIZE":"LARGE","TIME_SYSTEM":"UTC","MEAN_MOTION_DOT":"0.00006142","CENTER_NAME":"EARTH","ELEMENT_SET_NO":"999","BSTAR":"0.00043081000000","ARG_OF_PERICENTER":"59.7189","PERIOD":"95.592","MEAN_ANOMALY":"300.3987","REF_FRAME":"TEME","GP_ID":"200542966","MEAN_MOTION":"15.06404996","OBJECT_NAME":"STARLINK-2134","DECAY_DATE":null,"OBJECT_ID":"2021-005BL","SEMIMAJOR_AXIS":"6925.333","SITE":"AFETR","ECCENTRICITY":"0.00018960","OBJECT_TYPE":"PAYLOAD","NORAD_CAT_ID":"47407","LAUNCH_DATE":"2021-01-20","PERIAPSIS":"545.885","APOAPSIS":"548.511","COUNTRY_CODE":"US","MEAN_ELEMENT_THEORY":"SGP4","FILE":"3389912","INCLINATION":"53.0553","TLE_LINE2":"2 47407  53.0553 348.2344 0001896  59.7189 300.3987 15.06404996 67351","MEAN_MOTION_DDOT":"0.0000000000000","TLE_LINE1":"1 47407U 21005BL  22095.88332404  .00006142  00000-0  43081-3 0  9992","EPOCH":"2022-04-05T21:11:59.197056","RA_OF_ASC_NODE":"348.2344"},{"MEAN_MOTION":"15.06410305","GP_ID":"200544217","REF_FRAME":"TEME","PERIOD":"95.591","MEAN_ANOMALY":"283.8980","ARG_OF_PERICENTER":"76.2164","ECCENTRICITY":"0.00013930","SITE":"AFETR","SEMIMAJOR_AXIS":"6925.317","OBJECT_ID":"2021-005BM","DECAY_DATE":null,"OBJECT_NAME":"STARLINK-2135","MEAN_MOTION_DOT":"0.00007383","TIME_SYSTEM":"UTC","RCS_SIZE":"LARGE","REV_AT_EPOCH":"6736","EPHEMERIS_TYPE":"0","CLASSIFICATION_TYPE":"U","BSTAR":"0.00051385000000","ELEMENT_SET_NO":"999","CENTER_NAME":"EARTH","MEAN_MOTION_DDOT":"0.0000000000000","TLE_LINE2":"2 47408  53.0566 348.0657 0001393  76.2164 283.8980 15.06410305 67360","TLE_LINE1":"1 47408U 21005BM  22095.92018078  .00007383  00000-0  51385-3 0  9990","INCLINATION":"53.0566","RA_OF_ASC_NODE":"348.0657","EPOCH":"2022-04-05T22:05:03.619392","LAUNCH_DATE":"2021-01-20","PERIAPSIS":"546.217","NORAD_CAT_ID":"47408","OBJECT_TYPE":"PAYLOAD","FILE":"3389912","MEAN_ELEMENT_THEORY":"SGP4","COUNTRY_CODE":"US","APOAPSIS":"548.147"}];
